start=new Date('2022-09-10T00:00:00.000Z').valueOf();
sats=[{"EPOCH":"2022-09-09T20:21:18.088992","PERIAPSIS":"546.159","CLASSIFICATION_TYPE":"U","INCLINATION":"53.0559","LAUNCH_DATE":"2021-05-26","EPHEMERIS_TYPE":"0","REF_FRAME":"TEME","SITE":"AFETR","OBJECT_ID":"2021-044M","MEAN_ANOMALY":"285.6071","CENTER_NAME":"EARTH","FILE":"3565505","MEAN_MOTION_DDOT":"0.0000000000000","COUNTRY_CODE":"US","ECCENTRICITY":"0.00015510","GP_ID":"212166376","ELEMENT_SET_NO":"999","BSTAR":"0.00001604800000","OBJECT_TYPE":"PAYLOAD","OBJECT_NAME":"STARLINK-2673","APOAPSIS":"548.308","PERIOD":"95.593","TLE_LINE2":"2 48649  53.0559  93.5893 0001551  74.5089 285.6071 15.06393515 71254","TLE_LINE1":"1 48649U 21044M   22252.84812603 -.00000043  00000-0  16048-4 0  9998","REV_AT_EPOCH":"7125","SEMIMAJOR_AXIS":"6925.368","NORAD_CAT_ID":"48649","MEAN_MOTION_DOT":"-0.00000043","MEAN_MOTION":"15.06393515","DECAY_DATE":null,"MEAN_ELEMENT_THEORY":"SGP4","RA_OF_ASC_NODE":"93.5893","RCS_SIZE":"LARGE","ARG_OF_PERICENTER":"74.5089","TIME_SYSTEM":"UTC"},{"OBJECT_NAME":"STARLINK-2672","OBJECT_TYPE":"PAYLOAD","BSTAR":"0.00002807600000","ELEMENT_SET_NO":"999","APOAPSIS":"548.267","NORAD_CAT_ID":"48650","MEAN_MOTION_DOT":"0.00000137","REV_AT_EPOCH":"7124","SEMIMAJOR_AXIS":"6925.375","TLE_LINE2":"2 48650  53.0542  93.9096 0001483  89.7737 270.3422 15.06391458 71243","PERIOD":"95.593","TLE_LINE1":"1 48650U 21044N   22252.77809397  .00000137  00000-0  28076-4 0  9995","TIME_SYSTEM":"UTC","RA_OF_ASC_NODE":"93.9096","RCS_SIZE":"LARGE","ARG_OF_PERICENTER":"89.7737","MEAN_ELEMENT_THEORY":"SGP4","DECAY_DATE":null,"MEAN_MOTION":"15.06391458","CLASSIFICATION_TYPE":"U","PERIAPSIS":"546.213","EPOCH":"2022-09-09T18:40:27.319008","OBJECT_ID":"2021-044N","REF_FRAME":"TEME","SITE":"AFETR","INCLINATION":"53.0542","LAUNCH_DATE":"2021-05-26","EPHEMERIS_TYPE":"0","FILE":"3565505","CENTER_NAME":"EARTH","MEAN_ANOMALY":"270.3422","GP_ID":"212167127","COUNTRY_CODE":"US","ECCENTRICITY":"0.00014830","MEAN_MOTION_DDOT":"0.0000000000000"},{"MEAN_MOTION":"15.06409306","DECAY_DATE":null,"MEAN_ELEMENT_THEORY":"SGP4","ARG_OF_PERICENTER":"79.0048","RCS_SIZE":"LARGE","RA_OF_ASC_NODE":"93.6243","TIME_SYSTEM":"UTC","TLE_LINE1":"1 48651U 21044P   22252.84074589  .00003237  00000-0  23603-3 0  9995","PERIOD":"95.592","TLE_LINE2":"2 48651  53.0529  93.6243 0001557  79.0048 281.1116 15.06409306 71252","SEMIMAJOR_AXIS":"6925.320","REV_AT_EPOCH":"7125","MEAN_MOTION_DOT":"0.00003237","NORAD_CAT_ID":"48651","APOAPSIS":"548.263","BSTAR":"0.00023603000000","ELEMENT_SET_NO":"999","OBJECT_TYPE":"PAYLOAD","OBJECT_NAME":"STARLINK-2731","MEAN_MOTION_DDOT":"0.0000000000000","ECCENTRICITY":"0.00015570","COUNTRY_CODE":"US","GP_ID":"212166876","MEAN_ANOMALY":"281.1116","CENTER_NAME":"EARTH","FILE":"3565505","LAUNCH_DATE":"2021-05-26","INCLINATION":"53.0529","EPHEMERIS_TYPE":"0","REF_FRAME":"TEME","SITE":"AFETR","OBJECT_ID":"2021-044P","EPOCH":"2022-09-09T20:10:40.444896","PERIAPSIS":"546.107","CLASSIFICATION_TYPE":"U"},{"CENTER_NAME":"EARTH","FILE":"3565505","MEAN_ANOMALY":"278.3212","GP_ID":"212165627","MEAN_MOTION_DDOT":"0.0000000000000","COUNTRY_CODE":"US","ECCENTRICITY":"0.00013210","PERIAPSIS":"546.292","CLASSIFICATION_TYPE":"U","EPOCH":"2022-09-09T20:05:22.106688","OBJECT_ID":"2021-044Q","INCLINATION":"53.0550","LAUNCH_DATE":"2021-05-26","EPHEMERIS_TYPE":"0","REF_FRAME":"TEME","SITE":"AFETR","REV_AT_EPOCH":"7125","SEMIMAJOR_AXIS":"6925.342","NORAD_CAT_ID":"48652","MEAN_MOTION_DOT":"0.00001723","TLE_LINE2":"2 48652  53.0550  93.6490 0001321  81.7927 278.3212 15.06402203 71250","PERIOD":"95.592","TLE_LINE1":"1 48652U 21044Q   22252.83706142  .00001723  00000-0  13450-3 0  9999","RA_OF_ASC_NODE":"93.6490","RCS_SIZE":"LARGE","ARG_OF_PERICENTER":"81.7927","TIME_SYSTEM":"UTC","MEAN_MOTION":"15.06402203","DECAY_DATE":null,"MEAN_ELEMENT_THEORY":"SGP4","OBJECT_TYPE":"PAYLOAD","OBJECT_NAME":"STARLINK-2727","BSTAR":"0.00013450000000","ELEMENT_SET_NO":"999","APOAPSIS":"548.122"},{"EPHEMERIS_TYPE":"0","LAUNCH_DATE":"2021-05-26","INCLINATION":"53.0542","SITE":"AFETR","REF_FRAME":"TEME","OBJECT_ID":"2021-044R","EPOCH":"2022-09-09T20:00:02.994336","PERIAPSIS":"546.246","CLASSIFICATION_TYPE":"U","MEAN_MOTION_DDOT":"0.0000000000000","ECCENTRICITY":"0.00013620","COUNTRY_CODE":"US","GP_ID":"212165877","MEAN_ANOMALY":"279.1681","FILE":"3565505","CENTER_NAME":"EARTH","APOAPSIS":"548.132","BSTAR":"0.00015582000000","ELEMENT_SET_NO":"999","OBJECT_TYPE":"PAYLOAD","OBJECT_NAME":"STARLINK-2720","MEAN_MOTION":"15.06408038","DECAY_DATE":null,"MEAN_ELEMENT_THEORY":"SGP4","ARG_OF_PERICENTER":"80.9462","RCS_SIZE":"LARGE","RA_OF_ASC_NODE":"93.6583","TIME_SYSTEM":"UTC","TLE_LINE1":"1 48653U 21044R   22252.83336799  .00002041  00000-0  15582-3 0  9999","PERIOD":"95.592","TLE_LINE2":"2 48653  53.0542  93.6583 0001362  80.9462 279.1681 15.06408038 71256","REV_AT_EPOCH":"7125","SEMIMAJOR_AXIS":"6925.324","MEAN_MOTION_DOT":"0.00002041","NORAD_CAT_ID":"48653"},{"APOAPSIS":"548.179","BSTAR":"0.00010864000000","ELEMENT_SET_NO":"999","OBJECT_NAME":"STARLINK-2651","OBJECT_TYPE":"PAYLOAD","MEAN_ELEMENT_THEORY":"SGP4","DECAY_DATE":null,"MEAN_MOTION":"15.06401696","TIME_SYSTEM":"UTC","ARG_OF_PERICENTER":"95.7567","RA_OF_ASC_NODE":"93.6779","RCS_SIZE":"LARGE","TLE_LINE1":"1 48654U 21044S   22252.82968929  .00001337  00000-0  10864-3 0  9990","TLE_LINE2":"2 48654  53.0553  93.6779 0001402  95.7567 264.3582 15.06401696 71250","PERIOD":"95.592","MEAN_MOTION_DOT":"0.00001337","NORAD_CAT_ID":"48654","SEMIMAJOR_AXIS":"6925.343","REV_AT_EPOCH":"7125","REF_FRAME":"TEME","SITE":"AFETR","EPHEMERIS_TYPE":"0","LAUNCH_DATE":"2021-05-26","INCLINATION":"53.0553","OBJECT_ID":"2021-044S","EPOCH":"2022-09-09T19:54:45.154656","CLASSIFICATION_TYPE":"U","PERIAPSIS":"546.237","ECCENTRICITY":"0.00014020","COUNTRY_CODE":"US","MEAN_MOTION_DDOT":"0.0000000000000","GP_ID":"212166628","MEAN_ANOMALY":"264.3582","CENTER_NAME":"EARTH","FILE":"3565505"},{"MEAN_MOTION":"15.06404751","DECAY_DATE":null,"MEAN_ELEMENT_THEORY":"SGP4","ARG_OF_PERICENTER":"66.6848","RA_OF_ASC_NODE":"93.6927","RCS_SIZE":"LARGE","TIME_SYSTEM":"UTC","TLE_LINE1":"1 48655U 21044T   22252.82600787  .00003347  00000-0  24342-3 0  9995","PERIOD":"95.592","TLE_LINE2":"2 48655  53.0534  93.6927 0001507  66.6848 293.4299 15.06404751 71253","REV_AT_EPOCH":"7125","SEMIMAJOR_AXIS":"6925.334","MEAN_MOTION_DOT":"0.00003347","NORAD_CAT_ID":"48655","APOAPSIS":"548.243","BSTAR":"0.00024342000000","ELEMENT_SET_NO":"999","OBJECT_TYPE":"PAYLOAD","OBJECT_NAME":"STARLINK-2657","MEAN_MOTION_DDOT":"0.0000000000000","ECCENTRICITY":"0.00015070","COUNTRY_CODE":"US","GP_ID":"212167376","MEAN_ANOMALY":"293.4299","FILE":"3565505","CENTER_NAME":"EARTH","INCLINATION":"53.0534","LAUNCH_DATE":"2021-05-26","EPHEMERIS_TYPE":"0","SITE":"AFETR","REF_FRAME":"TEME","OBJECT_ID":"2021-044T","EPOCH":"2022-09-09T19:49:27.079968","PERIAPSIS":"546.155","CLASSIFICATION_TYPE":"U"},{"APOAPSIS":"548.168","ELEMENT_SET_NO":"999","BSTAR":"0.00025239000000","OBJECT_NAME":"STARLINK-2701","OBJECT_TYPE":"PAYLOAD","DECAY_DATE":null,"MEAN_ELEMENT_THEORY":"SGP4","MEAN_MOTION":"15.06409731","TIME_SYSTEM":"UTC","ARG_OF_PERICENTER":"69.7265","RCS_SIZE":"LARGE","RA_OF_ASC_NODE":"93.7106","TLE_LINE1":"1 48656U 21044U   22252.82231663  .00003481  00000-0  25239-3 0  9994","PERIOD":"95.592","TLE_LINE2":"2 48656  53.0547  93.7106 0001421  69.7265 290.3877 15.06409731 71251","MEAN_MOTION_DOT":"0.00003481","NORAD_CAT_ID":"48656","SEMIMAJOR_AXIS":"6925.319","REV_AT_EPOCH":"7125","REF_FRAME":"TEME","SITE":"AFETR","INCLINATION":"53.0547","LAUNCH_DATE":"2021-05-26","EPHEMERIS_TYPE":"0","OBJECT_ID":"2021-044U","EPOCH":"2022-09-09T19:44:08.156832","CLASSIFICATION_TYPE":"U","PERIAPSIS":"546.200","ECCENTRICITY":"0.00014210","COUNTRY_CODE":"US","MEAN_MOTION_DDOT":"0.0000000000000","GP_ID":"212166127","MEAN_ANOMALY":"290.3877","CENTER_NAME":"EARTH","FILE":"3565505"},{"APOAPSIS":"548.142","OBJECT_NAME":"STARLINK-2734","OBJECT_TYPE":"PAYLOAD","BSTAR":"0.00028193000000","ELEMENT_SET_NO":"999","TIME_SYSTEM":"UTC","RCS_SIZE":"LARGE","RA_OF_ASC_NODE":"93.7157","ARG_OF_PERICENTER":"77.9173","MEAN_ELEMENT_THEORY":"SGP4","DECAY_DATE":null,"MEAN_MOTION":"15.06408760","NORAD_CAT_ID":"48657","MEAN_MOTION_DOT":"0.00003921","SEMIMAJOR_AXIS":"6925.322","REV_AT_EPOCH":"7125","PERIOD":"95.592","TLE_LINE2":"2 48657  53.0532  93.7157 0001380  77.9173 282.1970 15.06408760 71259","TLE_LINE1":"1 48657U 21044V   22252.81862982  .00003921  00000-0  28193-3 0  9999","OBJECT_ID":"2021-044V","SITE":"AFETR","REF_FRAME":"TEME","INCLINATION":"53.0532","LAUNCH_DATE":"2021-05-26","EPHEMERIS_TYPE":"0","CLASSIFICATION_TYPE":"U","PERIAPSIS":"546.231","EPOCH":"2022-09-09T19:38:49.616448","GP_ID":"212166377","COUNTRY_CODE":"US","ECCENTRICITY":"0.00013800","MEAN_MOTION_DDOT":"0.0000000000000","CENTER_NAME":"EARTH","FILE":"3565505","MEAN_ANOMALY":"282.1970"},{"FILE":"3565505","CENTER_NAME":"EARTH","MEAN_ANOMALY":"277.2133","GP_ID":"212167128","ECCENTRICITY":"0.00014980","COUNTRY_CODE":"US","MEAN_MOTION_DDOT":"0.0000000000000","CLASSIFICATION_TYPE":"U","PERIAPSIS":"546.162","EPOCH":"2022-09-09T19:33:31.255776","OBJECT_ID":"2021-044W","REF_FRAME":"TEME","SITE":"AFETR","LAUNCH_DATE":"2021-05-26","EPHEMERIS_TYPE":"0","INCLINATION":"53.0543","MEAN_MOTION_DOT":"0.00002442","NORAD_CAT_ID":"48658","SEMIMAJOR_AXIS":"6925.335","REV_AT_EPOCH":"7125","TLE_LINE1":"1 48658U 21044W   22252.81494509  .00002442  00000-0  18276-3 0  9994","PERIOD":"95.592","TLE_LINE2":"2 48658  53.0543  93.7427 0001498  82.9026 277.2133 15.06404527 71258","TIME_SYSTEM":"UTC","ARG_OF_PERICENTER":"82.9026","RA_OF_ASC_NODE":"93.7427","RCS_SIZE":"LARGE","DECAY_DATE":null,"MEAN_ELEMENT_THEORY":"SGP4","MEAN_MOTION":"15.06404527","OBJECT_NAME":"STARLINK-2647","OBJECT_TYPE":"PAYLOAD","BSTAR":"0.00018276000000","ELEMENT_SET_NO":"999","APOAPSIS":"548.237"}];
